LEGION 1                
1 59625U 24081A   26199.23361548  .00001741  00000+0  91884-4 0  9997
2 59625  97.5009 276.7614 0007781 257.0228 103.0136 15.16855003122240
LEGION 2                
1 59626U 24081B   26199.26404577  .00001815  00000+0  95627-4 0  9992
2 59626  97.5010 276.8882 0010448 221.7139 138.3299 15.16834309122252
LEGION 3                
1 60452U 24146A   26199.17064658  .00001155  00000+0  73355-4 0  9996
2 60452  45.0015 224.4397 0007925 350.2066   9.8657 15.15664771106724
LEGION 4                
1 60453U 24146B   26199.30214980  .00001598  00000+0  96132-4 0  9996
2 60453  45.0025 315.6024 0009102 133.0080 227.1563 15.15693110105592
LEGION 5                
1 62900U 25025A   26198.84081880  .00000844  00000+0  57230-4 0  9990
2 62900  45.0019 137.0330 0007995 303.7651  56.2465 15.15709004 79141
LEGION 6                
1 62901U 25025B   26198.97178272  .00001811  00000+0  10709-3 0  9991
2 62901  45.0031  45.4787 0010719 290.9505  69.0226 15.15699452 80309
